[{"OBJECT_NAME":"STARLINK-30233","OBJECT_ID":"2023-096N","EPOCH":"2026-03-09T22:00:01.999584","MEAN_MOTION":15.15156018,"ECCENTRICITY":0.00020685,"INCLINATION":42.9996,"RA_OF_ASC_NODE":220.9752,"ARG_OF_PERICENTER":272.9795,"MEAN_ANOMALY":48.4201,"EPHEMERIS_TYPE":0,"CLASSIFICATION_TYPE":"U","NORAD_CAT_ID":57302,"ELEMENT_SET_NO":999,"REV_AT_EPOCH":577,"BSTAR":0.0050475761,"MEAN_MOTION_DOT":0.00097471,"MEAN_MOTION_DDOT":0},{"OBJECT_NAME":"PEGASUS DEB","OBJECT_ID":"1994-029AES","EPOCH":"2026-03-06T17:32:52.876320","MEAN_MOTION":15.2736598,"ECCENTRICITY":0.00781089,"INCLINATION":81.9406,"RA_OF_ASC_NODE":336.1125,"ARG_OF_PERICENTER":102.4632,"MEAN_ANOMALY":258.5359,"EPHEMERIS_TYPE":0,"CLASSIFICATION_TYPE":"U","NORAD_CAT_ID":39307,"ELEMENT_SET_NO":999,"REV_AT_EPOCH":76792,"BSTAR":0.0021826707,"MEAN_MOTION_DOT":0.00064449,"MEAN_MOTION_DDOT":0}]
